{
  "type": "FeatureCollection",
  "features": [
    {
      "type": "Feature",
      "properties": {
        "name": "Abu Dhabi"
      },
      "geometry": {
        "type": "Polygon",
        "coordinates": [
          [
            [
              54.3273,
              24.4039
            ],
            [
              54.427299999999995,
              24.4039
            ],
            [
              54.427299999999995,
              24.5039
            ],
            [
              54.3273,
              24.5039
            ],
            [
              54.3273,
              24.4039
            ]
          ]
        ]
      }
    },
    {
      "type": "Feature",
      "properties": {
        "name": "Dubai"
      },
      "geometry": {
        "type": "Polygon",
        "coordinates": [
          [
            [
              55.220800000000004,
              25.154799999999998
            ],
            [
              55.3208,
              25.154799999999998
            ],
            [
              55.3208,
              25.2548
            ],
            [
              55.220800000000004,
              25.2548
            ],
            [
              55.220800000000004,
              25.154799999999998
            ]
          ]
        ]
      }
    },
    {
      "type": "Feature",
      "properties": {
        "name": "Sharjah"
      },
      "geometry": {
        "type": "Polygon",
        "coordinates": [
          [
            [
              55.353300000000004,
              25.2963
            ],
            [
              55.4533,
              25.2963
            ],
            [
              55.4533,
              25.3963
            ],
            [
              55.353300000000004,
              25.3963
            ],
            [
              55.353300000000004,
              25.2963
            ]
          ]
        ]
      }
    },
    {
      "type": "Feature",
      "properties": {
        "name": "Ajman"
      },
      "geometry": {
        "type": "Polygon",
        "coordinates": [
          [
            [
              55.4636,
              25.3552
            ],
            [
              55.563599999999994,
              25.3552
            ],
            [
              55.563599999999994,
              25.4552
            ],
            [
              55.4636,
              25.4552
            ],
            [
              55.4636,
              25.3552
            ]
          ]
        ]
      }
    },
    {
      "type": "Feature",
      "properties": {
        "name": "Umm Al Quwain"
      },
      "geometry": {
        "type": "Polygon",
        "coordinates": [
          [
            [
              55.5052,
              25.514699999999998
            ],
            [
              55.605199999999996,
              25.514699999999998
            ],
            [
              55.605199999999996,
              25.6147
            ],
            [
              55.5052,
              25.6147
            ],
            [
              55.5052,
              25.514699999999998
            ]
          ]
        ]
      }
    },
    {
      "type": "Feature",
      "properties": {
        "name": "Ras Al Khaimah"
      },
      "geometry": {
        "type": "Polygon",
        "coordinates": [
          [
            [
              55.8932,
              25.7395
            ],
            [
              55.993199999999995,
              25.7395
            ],
            [
              55.993199999999995,
              25.8395
            ],
            [
              55.8932,
              25.8395
            ],
            [
              55.8932,
              25.7395
            ]
          ]
        ]
      }
    },
    {
      "type": "Feature",
      "properties": {
        "name": "Fujairah"
      },
      "geometry": {
        "type": "Polygon",
        "coordinates": [
          [
            [
              56.276500000000006,
              25.078799999999998
            ],
            [
              56.3765,
              25.078799999999998
            ],
            [
              56.3765,
              25.1788
            ],
            [
              56.276500000000006,
              25.1788
            ],
            [
              56.276500000000006,
              25.078799999999998
            ]
          ]
        ]
      }
    }
  ]
}